[{"OBJECT_NAME":"STARLINK-36083","OBJECT_ID":"2025-281K","EPOCH":"2026-03-09T04:13:09.355872","MEAN_MOTION":15.27607923,"ECCENTRICITY":0.00012776,"INCLINATION":43.0038,"RA_OF_ASC_NODE":346.6606,"ARG_OF_PERICENTER":277.807,"MEAN_ANOMALY":82.2637,"EPHEMERIS_TYPE":0,"CLASSIFICATION_TYPE":"U","NORAD_CAT_ID":66857,"ELEMENT_SET_NO":999,"REV_AT_EPOCH":1610,"BSTAR":0.0012797401,"MEAN_MOTION_DOT":0.00035151,"MEAN_MOTION_DDOT":0},{"OBJECT_NAME":"KUIPER-00274","OBJECT_ID":"2026-030AE","EPOCH":"2026-03-09T22:00:01.999584","MEAN_MOTION":15.29896925,"ECCENTRICITY":0.00182929,"INCLINATION":51.8831,"RA_OF_ASC_NODE":218.6923,"ARG_OF_PERICENTER":71.2033,"MEAN_ANOMALY":115.2248,"EPHEMERIS_TYPE":0,"CLASSIFICATION_TYPE":"U","NORAD_CAT_ID":67792,"ELEMENT_SET_NO":999,"REV_AT_EPOCH":410,"BSTAR":0.0017989756,"MEAN_MOTION_DOT":0.00053102,"MEAN_MOTION_DDOT":0}]
